{"type": "FeatureCollection", "features": [ {"type": "Feature", "properties": {"norad_id": 35480, "name": "IRIDIUM 33 DEB", "group": "iridium-33-debris", "lat": -12.817644351286726, "lon": 18.78984666457803, "alt_km": 729.0313831769181, "timestamp": "2025-12-24T22:42:22.418723+00:00", "meta": {"OBJECT_NAME": "IRIDIUM 33 DEB", "OBJECT_ID": "1997-051QA", "EPOCH": "2025-12-23T11:58:47.175168", "MEAN_MOTION": 14.49804524, "ECCENTRICITY": 0.00162048, "INCLINATION": 86.3563, "RA_OF_ASC_NODE": 20.2477, "ARG_OF_PERICENTER": 73.1284, "MEAN_ANOMALY": 287.1696, "EPHEMERIS_TYPE": 0, "CLASSIFICATION_TYPE": "U", "NORAD_CAT_ID": 35480, "ELEMENT_SET_NO": 999, "REV_AT_EPOCH": 87187, "BSTAR": 0.00052903824, "MEAN_MOTION_DOT": 2.063e-05, "MEAN_MOTION_DDOT": 0}, "tle": {"line1": "1 35480U 97051QA  25357.49915712  .00002063  00000+0  52904-3 0  9995", "line2": "2 35480  86.3563  20.2477 0016204  73.1284 287.1696 14.49804524871874"}}, "geometry": {"type": "Point", "coordinates": [18.78984666457803, -12.817644351286726]}}, {"type": "Feature", "properties": {"norad_id": 35484, "name": "IRIDIUM 33 DEB", "group": "iridium-33-debris", "lat": 27.424800463113645, "lon": 165.13960349349546, "alt_km": 561.1128950383445, "timestamp": "2025-12-24T22:42:22.418733+00:00", "meta": {"OBJECT_NAME": "IRIDIUM 33 DEB", "OBJECT_ID": "1997-051QE", "EPOCH": "2025-12-23T05:59:10.354560", "MEAN_MOTION": 14.99264182, "ECCENTRICITY": 0.00245796, "INCLINATION": 86.3609, "RA_OF_ASC_NODE": 347.8264, "ARG_OF_PERICENTER": 91.5392, "MEAN_ANOMALY": 268.8655, "EPHEMERIS_TYPE": 0, "CLASSIFICATION_TYPE": "U", "NORAD_CAT_ID": 35484, "ELEMENT_SET_NO": 999, "REV_AT_EPOCH": 62173, "BSTAR": 0.0029536278, "MEAN_MOTION_DOT": 0.00036413, "MEAN_MOTION_DDOT": 0}, "tle": {"line1": "1 35484U 97051QE  25357.24942540  .00036413  00000+0  29536-2 0  9991", "line2": "2 35484  86.3609 347.8264 0024579  91.5392 268.8655 14.99264182621733"}}, "geometry": {"type": "Point", "coordinates": [165.13960349349546, 27.424800463113645]}}, {"type": "Feature", "properties": {"norad_id": 35488, "name": "IRIDIUM 33 DEB", "group": "iridium-33-debris", "lat": -71.84876117824443, "lon": -76.0572354932732, "alt_km": 620.7323765191495, "timestamp": "2025-12-24T22:42:22.418744+00:00", "meta": {"OBJECT_NAME": "IRIDIUM 33 DEB", "OBJECT_ID": "1997-051QJ", "EPOCH": "2025-12-22T19:13:13.565280", "MEAN_MOTION": 14.8329676, "ECCENTRICITY": 0.00284188, "INCLINATION": 86.3248, "RA_OF_ASC_NODE": 296.2385, "ARG_OF_PERICENTER": 9.7501, "MEAN_ANOMALY": 350.4267, "EPHEMERIS_TYPE": 0, "CLASSIFICATION_TYPE": "U", "NORAD_CAT_ID": 35488, "ELEMENT_SET_NO": 999, "REV_AT_EPOCH": 88415, "BSTAR": 0.0016428334, "MEAN_MOTION_DOT": 0.00013576, "MEAN_MOTION_DDOT": 0}, "tle": {"line1": "1 35488U 97051QJ  25356.80085145  .00013576  00000+0  16428-2 0  9996", "line2": "2 35488  86.3248 296.2385 0028418   9.7501 350.4267 14.83296760884150"}}, "geometry": {"type": "Point", "coordinates": [-76.0572354932732, -71.84876117824443]}}, {"type": "Feature", "properties": {"norad_id": 35616, "name": "IRIDIUM 33 DEB", "group": "iridium-33-debris", "lat": 32.24063780563188, "lon": -17.503127570298314, "alt_km": 621.0006002503806, "timestamp": "2025-12-24T22:42:22.418754+00:00", "meta": {"OBJECT_NAME": "IRIDIUM 33 DEB", "OBJECT_ID": "1997-051QN", "EPOCH": "2025-12-21T16:46:45.287328", "MEAN_MOTION": 14.82015021, "ECCENTRICITY": 0.00114093, "INCLINATION": 86.3545, "RA_OF_ASC_NODE": 341.6744, "ARG_OF_PERICENTER": 134.0095, "MEAN_ANOMALY": 226.2069, "EPHEMERIS_TYPE": 0, "CLASSIFICATION_TYPE": "U", "NORAD_CAT_ID": 35616, "ELEMENT_SET_NO": 999, "REV_AT_EPOCH": 87707, "BSTAR": 0.0013754653, "MEAN_MOTION_DOT": 0.00010957, "MEAN_MOTION_DDOT": 0}, "tle": {"line1": "1 35616U 97051QN  25355.69913527  .00010957  00000+0  13755-2 0  9999", "line2": "2 35616  86.3545 341.6744 0011409 134.0095 226.2069 14.82015021877070"}}, "geometry": {"type": "Point", "coordinates": [-17.503127570298314, 32.24063780563188]}}, {"type": "Feature", "properties": {"norad_id": 35618, "name": "IRIDIUM 33 DEB", "group": "iridium-33-debris", "lat": -62.06313937709967, "lon": -18.762147786114777, "alt_km": 710.4654320425971, "timestamp": "2025-12-24T22:42:22.418764+00:00", "meta": {"OBJECT_NAME": "IRIDIUM 33 DEB", "OBJECT_ID": "1997-051QQ", "EPOCH": "2025-12-21T17:16:24.492288", "MEAN_MOTION": 14.52331103, "ECCENTRICITY": 0.00284149, "INCLINATION": 86.341, "RA_OF_ASC_NODE": 349.5786, "ARG_OF_PERICENTER": 351.4344, "MEAN_ANOMALY": 8.6373, "EPHEMERIS_TYPE": 0, "CLASSIFICATION_TYPE": "U", "NORAD_CAT_ID": 35618, "ELEMENT_SET_NO": 999, "REV_AT_EPOCH": 65524, "BSTAR": 0.00039049847, "MEAN_MOTION_DOT": 1.617e-05, "MEAN_MOTION_DDOT": 0}, "tle": {"line1": "1 35618U 97051QQ  25355.71972792  .00001617  00000+0  39050-3 0  9993", "line2": "2 35618  86.3410 349.5786 0028414 351.4344   8.6373 14.52331103655244"}}, "geometry": {"type": "Point", "coordinates": [-18.762147786114777, -62.06313937709967]}}, {"type": "Feature", "properties": {"norad_id": 35620, "name": "IRIDIUM 33 DEB", "group": "iridium-33-debris", "lat": 23.021316733906165, "lon": -146.15664230060327, "alt_km": 858.7579321489602, "timestamp": "2025-12-24T22:42:22.418775+00:00", "meta": {"OBJECT_NAME": "IRIDIUM 33 DEB", "OBJECT_ID": "1997-051QS", "EPOCH": "2025-12-24T00:53:30.549696", "MEAN_MOTION": 14.38385762, "ECCENTRICITY": 0.01384692, "INCLINATION": 86.3889, "RA_OF_ASC_NODE": 212.6892, "ARG_OF_PERICENTER": 221.3129, "MEAN_ANOMALY": 137.7531, "EPHEMERIS_TYPE": 0, "CLASSIFICATION_TYPE": "U", "NORAD_CAT_ID": 35620, "ELEMENT_SET_NO": 999, "REV_AT_EPOCH": 60128, "BSTAR": 0.0046388271, "MEAN_MOTION_DOT": 0.00015845, "MEAN_MOTION_DDOT": 0}, "tle": {"line1": "1 35620U 97051QS  25358.03715914  .00015845  00000+0  46388-2 0  9994", "line2": "2 35620  86.3889 212.6892 0138469 221.3129 137.7531 14.38385762601282"}}, "geometry": {"type": "Point", "coordinates": [-146.15664230060327, 23.021316733906165]}}, {"type": "Feature", "properties": {"norad_id": 35622, "name": "IRIDIUM 33 DEB", "group": "iridium-33-debris", "lat": 6.831715133353566, "lon": 77.12627510645042, "alt_km": 551.4873711942246, "timestamp": "2025-12-24T22:42:22.418785+00:00", "meta": {"OBJECT_NAME": "IRIDIUM 33 DEB", "OBJECT_ID": "1997-051QU", "EPOCH": "2025-12-23T17:21:42.229152", "MEAN_MOTION": 15.05849301, "ECCENTRICITY": 0.0003572, "INCLINATION": 86.199, "RA_OF_ASC_NODE": 258.1866, "ARG_OF_PERICENTER": 286.0081, "MEAN_ANOMALY": 102.9668, "EPHEMERIS_TYPE": 0, "CLASSIFICATION_TYPE": "U", "NORAD_CAT_ID": 35622, "ELEMENT_SET_NO": 999, "REV_AT_EPOCH": 87525, "BSTAR": 0.0038142437, "MEAN_MOTION_DOT": 0.00055737, "MEAN_MOTION_DDOT": 0}, "tle": {"line1": "1 35622U 97051QU  25357.72340543  .00055737  00000+0  38142-2 0  9996", "line2": "2 35622  86.1990 258.1866 0003572 286.0081 102.9668 15.05849301875256"}}, "geometry": {"type": "Point", "coordinates": [77.12627510645042, 6.831715133353566]}}, {"type": "Feature", "properties": {"norad_id": 35628, "name": "IRIDIUM 33 DEB", "group": "iridium-33-debris", "lat": 31.34976275760686, "lon": -178.59435903759737, "alt_km": 672.1554935629692, "timestamp": "2025-12-24T22:42:22.418796+00:00", "meta": {"OBJECT_NAME": "IRIDIUM 33 DEB", "OBJECT_ID": "1997-051RA", "EPOCH": "2025-12-24T07:18:18.749088", "MEAN_MOTION": 14.67742209, "ECCENTRICITY": 0.00093407, "INCLINATION": 86.3568, "RA_OF_ASC_NODE": 3.9163, "ARG_OF_PERICENTER": 298.0786, "MEAN_ANOMALY": 61.9483, "EPHEMERIS_TYPE": 0, "CLASSIFICATION_TYPE": "U", "NORAD_CAT_ID": 35628, "ELEMENT_SET_NO": 999, "REV_AT_EPOCH": 86616, "BSTAR": 0.0014718585, "MEAN_MOTION_DOT": 8.414e-05, "MEAN_MOTION_DDOT": 0}, "tle": {"line1": "1 35628U 97051RA  25358.30438367  .00008414  00000+0  14719-2 0  9993", "line2": "2 35628  86.3568   3.9163 0009340 298.0786  61.9483 14.67742209866160"}}, "geometry": {"type": "Point", "coordinates": [-178.59435903759737, 31.34976275760686]}}, {"type": "Feature", "properties": {"norad_id": 35631, "name": "IRIDIUM 33 DEB", "group": "iridium-33-debris", "lat": -52.23691553068111, "lon": -159.5754605794998, "alt_km": 753.3603516862959, "timestamp": "2025-12-24T22:42:22.418807+00:00", "meta": {"OBJECT_NAME": "IRIDIUM 33 DEB", "OBJECT_ID": "1997-051RD", "EPOCH": "2025-12-23T19:55:07.145184", "MEAN_MOTION": 14.47339905, "ECCENTRICITY": 0.00192581, "INCLINATION": 86.366, "RA_OF_ASC_NODE": 16.1993, "ARG_OF_PERICENTER": 85.1182, "MEAN_ANOMALY": 95.1858, "EPHEMERIS_TYPE": 0, "CLASSIFICATION_TYPE": "U", "NORAD_CAT_ID": 35631, "ELEMENT_SET_NO": 999, "REV_AT_EPOCH": 87357, "BSTAR": 0.00033517524, "MEAN_MOTION_DOT": 1.25e-05, "MEAN_MOTION_DDOT": 0}, "tle": {"line1": "1 35631U 97051RD  25357.82994381  .00001250  00000+0  33518-3 0  9996", "line2": "2 35631  86.3660  16.1993 0019258  85.1182  95.1858 14.47339905873579"}}, "geometry": {"type": "Point", "coordinates": [-159.5754605794998, -52.23691553068111]}}, {"type": "Feature", "properties": {"norad_id": 35680, "name": "IRIDIUM 33 DEB", "group": "iridium-33-debris", "lat": 52.759896528114375, "lon": -169.02883351434485, "alt_km": 856.7458881162602, "timestamp": "2025-12-24T22:42:22.418817+00:00", "meta": {"OBJECT_NAME": "IRIDIUM 33 DEB", "OBJECT_ID": "1997-051RJ", "EPOCH": "2025-12-23T19:54:46.036800", "MEAN_MOTION": 14.21087614, "ECCENTRICITY": 0.01506225, "INCLINATION": 86.102, "RA_OF_ASC_NODE": 16.6115, "ARG_OF_PERICENTER": 242.9908, "MEAN_ANOMALY": 297.7564, "EPHEMERIS_TYPE": 0, "CLASSIFICATION_TYPE": "U", "NORAD_CAT_ID": 35680, "ELEMENT_SET_NO": 999, "REV_AT_EPOCH": 60858, "BSTAR": 0.0032353227, "MEAN_MOTION_DOT": 7.897e-05, "MEAN_MOTION_DDOT": 0}, "tle": {"line1": "1 35680U 97051RJ  25357.82969950  .00007897  00000+0  32353-2 0  9992", "line2": "2 35680  86.1020  16.6115 0150622 242.9908 297.7564 14.21087614608582"}}, "geometry": {"type": "Point", "coordinates": [-169.02883351434485, 52.759896528114375]}}]}